{"type":"FeatureCollection","features":[{"type":"Feature","geometry":null,"properties":{"nom_commune":"THIO","code_post":"98829","code_com":"98829","nom_minus":"Thio","province":["province Sud"]}},{"type":"Feature","geometry":null,"properties":{"nom_commune":"BELEP","code_post":"98811","code_com":"98801","nom_minus":"Belep","province":["province Nord"]}},{"type":"Feature","geometry":null,"properties":{"nom_commune":"HIENGHENE","code_post":"98815","code_com":"98807","nom_minus":"Hiengh\u00e8ne","province":["province Nord"]}},{"type":"Feature","geometry":null,"properties":{"nom_commune":"KAALA-GOMEN","code_post":"98817","code_com":"98810","nom_minus":"Kaala-Gomen","province":["province Nord"]}},{"type":"Feature","geometry":null,"properties":{"nom_commune":"LIFOU","code_post":"98820","code_com":"98814","nom_minus":"Lifou","province":["province des \u00eeles Loyaut\u00e9"]}},{"type":"Feature","geometry":null,"properties":{"nom_commune":"POINDIMIE","code_post":"98822","code_com":"98822","nom_minus":"Poindimi\u00e9","province":["province Nord"]}},{"type":"Feature","geometry":null,"properties":{"nom_commune":"SARRAMEA","code_post":"98882","code_com":"98828","nom_minus":"Sarram\u00e9a","province":["province Sud"]}},{"type":"Feature","geometry":null,"properties":{"nom_commune":"TOUHO","code_post":"98831","code_com":"98830","nom_minus":"Touho","province":["province Nord"]}},{"type":"Feature","geometry":null,"properties":{"nom_commune":"BOURAIL","code_post":"98870","code_com":"98803","nom_minus":"Bourail","province":["province Sud"]}},{"type":"Feature","geometry":null,"properties":{"nom_commune":"DUMBEA","code_post":"98835","code_com":"98805","nom_minus":"Dumb\u00e9a","province":["province Sud"]}},{"type":"Feature","geometry":null,"properties":{"nom_commune":"KOUAOUA","code_post":"98818","code_com":"98833","nom_minus":"Kouaoua","province":["province Nord"]}},{"type":"Feature","geometry":null,"properties":{"nom_commune":"KOUMAC","code_post":"98850","code_com":"98812","nom_minus":"Koumac","province":["province Nord"]}},{"type":"Feature","geometry":null,"properties":{"nom_commune":"LA FOA","code_post":"98880","code_com":"98813","nom_minus":"La Foa","province":["province Sud"]}},{"type":"Feature","geometry":null,"properties":{"nom_commune":"MOINDOU","code_post":"98819","code_com":"98816","nom_minus":"Moindou","province":["province Sud"]}},{"type":"Feature","geometry":null,"properties":{"nom_commune":"PAITA","code_post":"98889","code_com":"98821","nom_minus":"Pa\u00efta","province":["province Sud"]}},{"type":"Feature","geometry":null,"properties":{"nom_commune":"POUEBO","code_post":"98824","code_com":"98824","nom_minus":"Pou\u00e9bo","province":["province Nord"]}},{"type":"Feature","geometry":null,"properties":{"nom_commune":"POUM","code_post":"98826","code_com":"98826","nom_minus":"Poum","province":["province Nord"]}},{"type":"Feature","geometry":null,"properties":{"nom_commune":"POUEMBOUT","code_post":"98825","code_com":"98825","nom_minus":"Pouembout","province":["province Nord"]}},{"type":"Feature","geometry":null,"properties":{"nom_commune":"BOULOUPARIS","code_post":"98812","code_com":"98802","nom_minus":"Boulouparis","province":["province Sud"]}},{"type":"Feature","geometry":null,"properties":{"nom_commune":"CANALA","code_post":"98813","code_com":"98804","nom_minus":"Canala","province":["province Nord"]}},{"type":"Feature","geometry":null,"properties":{"nom_commune":"FARINO","code_post":"98881","code_com":"98806","nom_minus":"Farino","province":["province Sud"]}},{"type":"Feature","geometry":null,"properties":{"nom_commune":"HOUAILOU","code_post":"98816","code_com":"98808","nom_minus":"Houa\u00eflou","province":["province Nord"]}},{"type":"Feature","geometry":null,"properties":{"nom_commune":"ILE DES PINS","code_post":"98832","code_com":"98809","nom_minus":"\u00cele-des-Pins (L')","province":["province Sud"]}},{"type":"Feature","geometry":null,"properties":{"nom_commune":"KONE","code_post":"98859","code_com":"98811","nom_minus":"Kon\u00e9","province":["province Nord"]}},{"type":"Feature","geometry":null,"properties":{"nom_commune":"MARE","code_post":"98828","code_com":"98815","nom_minus":"Mar\u00e9","province":["province des \u00eeles Loyaut\u00e9"]}},{"type":"Feature","geometry":null,"properties":{"nom_commune":"MONT-DORE","code_post":"98809","code_com":"98817","nom_minus":"Mont-Dore (Le)","province":["province Sud"]}},{"type":"Feature","geometry":null,"properties":{"nom_commune":"NOUMEA","code_post":"98800","code_com":"98818","nom_minus":"Noum\u00e9a","province":["province Sud"]}},{"type":"Feature","geometry":null,"properties":{"nom_commune":"OUEGOA","code_post":"98821","code_com":"98819","nom_minus":"Ou\u00e9goa","province":["province Nord"]}},{"type":"Feature","geometry":null,"properties":{"nom_commune":"OUVEA","code_post":"98814","code_com":"98820","nom_minus":"Ouv\u00e9a","province":["province des \u00eeles Loyaut\u00e9"]}},{"type":"Feature","geometry":null,"properties":{"nom_commune":"PONERIHOUEN","code_post":"98823","code_com":"98823","nom_minus":"Pon\u00e9rihouen","province":["province Nord"]}},{"type":"Feature","geometry":null,"properties":{"nom_commune":"POYA","code_post":"98827","code_com":"98827","nom_minus":"Poya","province":["province Nord","province Sud"]}},{"type":"Feature","geometry":null,"properties":{"nom_commune":"VOH","code_post":"98833","code_com":"98831","nom_minus":"Voh","province":["province Nord"]}},{"type":"Feature","geometry":null,"properties":{"nom_commune":"YATE","code_post":"98834","code_com":"98832","nom_minus":"Yat\u00e9","province":["province Sud"]}}]}